[{"OBJECT_NAME":"STARLINK-11478 [DTC]","OBJECT_ID":"2025-006D","EPOCH":"2025-07-30T22:05:22.759584","MEAN_MOTION":15.70838878,"ECCENTRICITY":0.0001841,"INCLINATION":43.0003,"RA_OF_ASC_NODE":36.6673,"ARG_OF_PERICENTER":283.1816,"MEAN_ANOMALY":76.8846,"EPHEMERIS_TYPE":0,"CLASSIFICATION_TYPE":"U","NORAD_CAT_ID":62557,"ELEMENT_SET_NO":999,"REV_AT_EPOCH":3172,"BSTAR":0.0021372,"MEAN_MOTION_DOT":0.00283326,"MEAN_MOTION_DDOT":0},{"OBJECT_NAME":"STARLINK-11358 [DTC]","OBJECT_ID":"2025-006E","EPOCH":"2025-07-31T20:51:07.540128","MEAN_MOTION":15.70947341,"ECCENTRICITY":0.0003353,"INCLINATION":43.0001,"RA_OF_ASC_NODE":30.8741,"ARG_OF_PERICENTER":255.7708,"MEAN_ANOMALY":104.2787,"EPHEMERIS_TYPE":0,"CLASSIFICATION_TYPE":"U","NORAD_CAT_ID":62558,"ELEMENT_SET_NO":999,"REV_AT_EPOCH":3300,"BSTAR":0.0017025,"MEAN_MOTION_DOT":0.00225063,"MEAN_MOTION_DDOT":0},{"OBJECT_NAME":"STARLINK-11517 [DTC]","OBJECT_ID":"2025-006F","EPOCH":"2025-07-31T21:06:25.273152","MEAN_MOTION":15.71122867,"ECCENTRICITY":0.0003471,"INCLINATION":42.9993,"RA_OF_ASC_NODE":30.9591,"ARG_OF_PERICENTER":280.1533,"MEAN_ANOMALY":79.8943,"EPHEMERIS_TYPE":0,"CLASSIFICATION_TYPE":"U","NORAD_CAT_ID":62559,"ELEMENT_SET_NO":999,"REV_AT_EPOCH":3187,"BSTAR":0.0024846,"MEAN_MOTION_DOT":0.00335558,"MEAN_MOTION_DDOT":0},{"OBJECT_NAME":"STARLINK-11519 [DTC]","OBJECT_ID":"2025-006G","EPOCH":"2025-07-31T04:51:09.664416","MEAN_MOTION":15.70889938,"ECCENTRICITY":0.0001658,"INCLINATION":42.9997,"RA_OF_ASC_NODE":35.3538,"ARG_OF_PERICENTER":291.677,"MEAN_ANOMALY":68.3921,"EPHEMERIS_TYPE":0,"CLASSIFICATION_TYPE":"U","NORAD_CAT_ID":62560,"ELEMENT_SET_NO":999,"REV_AT_EPOCH":3284,"BSTAR":0.0017323,"MEAN_MOTION_DOT":0.00228527,"MEAN_MOTION_DDOT":0},{"OBJECT_NAME":"STARLINK-11451 [DTC]","OBJECT_ID":"2025-006H","EPOCH":"2025-07-31T20:35:50.286624","MEAN_MOTION":15.7091832,"ECCENTRICITY":0.0002003,"INCLINATION":42.9998,"RA_OF_ASC_NODE":30.7881,"ARG_OF_PERICENTER":283.9525,"MEAN_ANOMALY":76.112,"EPHEMERIS_TYPE":0,"CLASSIFICATION_TYPE":"U","NORAD_CAT_ID":62561,"ELEMENT_SET_NO":999,"REV_AT_EPOCH":3187,"BSTAR":0.0018928,"MEAN_MOTION_DOT":0.00250718,"MEAN_MOTION_DDOT":0},{"OBJECT_NAME":"STARLINK-11530 [DTC]","OBJECT_ID":"2025-006J","EPOCH":"2025-07-31T21:36:59.704128","MEAN_MOTION":15.70950025,"ECCENTRICITY":0.0003663,"INCLINATION":42.9997,"RA_OF_ASC_NODE":31.1301,"ARG_OF_PERICENTER":257.0295,"MEAN_ANOMALY":103.0164,"EPHEMERIS_TYPE":0,"CLASSIFICATION_TYPE":"U","NORAD_CAT_ID":62562,"ELEMENT_SET_NO":999,"REV_AT_EPOCH":3187,"BSTAR":0.0014941,"MEAN_MOTION_DOT":0.00196816,"MEAN_MOTION_DDOT":0},{"OBJECT_NAME":"STARLINK-11536 [DTC]","OBJECT_ID":"2025-006K","EPOCH":"2025-07-31T05:27:52.995744","MEAN_MOTION":15.70883039,"ECCENTRICITY":0.0002951,"INCLINATION":43.0001,"RA_OF_ASC_NODE":34.6636,"ARG_OF_PERICENTER":272.0622,"MEAN_ANOMALY":87.9908,"EPHEMERIS_TYPE":0,"CLASSIFICATION_TYPE":"U","NORAD_CAT_ID":62563,"ELEMENT_SET_NO":999,"REV_AT_EPOCH":3177,"BSTAR":0.0017192,"MEAN_MOTION_DOT":0.00226696,"MEAN_MOTION_DDOT":0},{"OBJECT_NAME":"STARLINK-11540 [DTC]","OBJECT_ID":"2025-006L","EPOCH":"2025-07-31T19:42:30.526560","MEAN_MOTION":15.71063586,"ECCENTRICITY":0.0001692,"INCLINATION":43.0003,"RA_OF_ASC_NODE":31.3846,"ARG_OF_PERICENTER":258.1304,"MEAN_ANOMALY":101.9374,"EPHEMERIS_TYPE":0,"CLASSIFICATION_TYPE":"U","NORAD_CAT_ID":62564,"ELEMENT_SET_NO":999,"REV_AT_EPOCH":3186,"BSTAR":0.0021178,"MEAN_MOTION_DOT":0.00283415,"MEAN_MOTION_DDOT":0},{"OBJECT_NAME":"STARLINK-11523 [DTC]","OBJECT_ID":"2025-006M","EPOCH":"2025-07-30T19:25:11.423136","MEAN_MOTION":15.70898249,"ECCENTRICITY":0.0001942,"INCLINATION":42.9999,"RA_OF_ASC_NODE":37.5576,"ARG_OF_PERICENTER":261.0738,"MEAN_ANOMALY":98.9909,"EPHEMERIS_TYPE":0,"CLASSIFICATION_TYPE":"U","NORAD_CAT_ID":62565,"ELEMENT_SET_NO":999,"REV_AT_EPOCH":3170,"BSTAR":0.0011923,"MEAN_MOTION_DOT":0.00155825,"MEAN_MOTION_DDOT":0},{"OBJECT_NAME":"STARLINK-11525 [DTC]","OBJECT_ID":"2025-006N","EPOCH":"2025-07-31T21:44:39.192288","MEAN_MOTION":15.70940358,"ECCENTRICITY":0.0001876,"INCLINATION":43,"RA_OF_ASC_NODE":31.171,"ARG_OF_PERICENTER":293.1696,"MEAN_ANOMALY":66.8974,"EPHEMERIS_TYPE":0,"CLASSIFICATION_TYPE":"U","NORAD_CAT_ID":62566,"ELEMENT_SET_NO":999,"REV_AT_EPOCH":3187,"BSTAR":0.0024875,"MEAN_MOTION_DOT":0.00333267,"MEAN_MOTION_DDOT":0},{"OBJECT_NAME":"STARLINK-32752","OBJECT_ID":"2025-006P","EPOCH":"2025-07-31T22:59:32.741376","MEAN_MOTION":15.27597405,"ECCENTRICITY":0.000163,"INCLINATION":43.001,"RA_OF_ASC_NODE":99.2356,"ARG_OF_PERICENTER":276.4381,"MEAN_ANOMALY":83.6285,"EPHEMERIS_TYPE":0,"CLASSIFICATION_TYPE":"U","NORAD_CAT_ID":62567,"ELEMENT_SET_NO":999,"REV_AT_EPOCH":3110,"BSTAR":0.00090292,"MEAN_MOTION_DOT":0.00024681,"MEAN_MOTION_DDOT":0},{"OBJECT_NAME":"STARLINK-32760","OBJECT_ID":"2025-006Q","EPOCH":"2025-07-30T23:38:17.679840","MEAN_MOTION":15.27614937,"ECCENTRICITY":2.81e-5,"INCLINATION":42.9987,"RA_OF_ASC_NODE":104.8269,"ARG_OF_PERICENTER":196.8087,"MEAN_ANOMALY":163.2756,"EPHEMERIS_TYPE":0,"CLASSIFICATION_TYPE":"U","NORAD_CAT_ID":62568,"ELEMENT_SET_NO":999,"REV_AT_EPOCH":3095,"BSTAR":0.0014631,"MEAN_MOTION_DOT":0.00040262,"MEAN_MOTION_DDOT":0},{"OBJECT_NAME":"STARLINK-32715","OBJECT_ID":"2025-006R","EPOCH":"2025-07-31T09:12:29.265120","MEAN_MOTION":15.2758771,"ECCENTRICITY":0.0001023,"INCLINATION":42.9996,"RA_OF_ASC_NODE":102.6628,"ARG_OF_PERICENTER":269.5835,"MEAN_ANOMALY":90.4899,"EPHEMERIS_TYPE":0,"CLASSIFICATION_TYPE":"U","NORAD_CAT_ID":62569,"ELEMENT_SET_NO":999,"REV_AT_EPOCH":3101,"BSTAR":0.00098353,"MEAN_MOTION_DOT":0.00026908,"MEAN_MOTION_DDOT":0},{"OBJECT_NAME":"STARLINK-32764","OBJECT_ID":"2025-006S","EPOCH":"2025-07-31T09:23:34.503648","MEAN_MOTION":15.27594571,"ECCENTRICITY":0.0002732,"INCLINATION":43.0009,"RA_OF_ASC_NODE":102.7213,"ARG_OF_PERICENTER":259.9322,"MEAN_ANOMALY":100.1222,"EPHEMERIS_TYPE":0,"CLASSIFICATION_TYPE":"U","NORAD_CAT_ID":62570,"ELEMENT_SET_NO":999,"REV_AT_EPOCH":3101,"BSTAR":0.00076302,"MEAN_MOTION_DOT":0.00020804,"MEAN_MOTION_DDOT":0},{"OBJECT_NAME":"STARLINK-32773","OBJECT_ID":"2025-006T","EPOCH":"2025-07-31T10:00:22.315680","MEAN_MOTION":15.27598814,"ECCENTRICITY":0.0003324,"INCLINATION":42.999,"RA_OF_ASC_NODE":102.0585,"ARG_OF_PERICENTER":272.8256,"MEAN_ANOMALY":87.2216,"EPHEMERIS_TYPE":0,"CLASSIFICATION_TYPE":"U","NORAD_CAT_ID":62571,"ELEMENT_SET_NO":999,"REV_AT_EPOCH":3102,"BSTAR":0.00081491,"MEAN_MOTION_DOT":0.00022245,"MEAN_MOTION_DDOT":0},{"OBJECT_NAME":"STARLINK-32750","OBJECT_ID":"2025-006U","EPOCH":"2025-07-31T09:34:28.312320","MEAN_MOTION":15.27590241,"ECCENTRICITY":0.0001157,"INCLINATION":43.0032,"RA_OF_ASC_NODE":101.9133,"ARG_OF_PERICENTER":270.8765,"MEAN_ANOMALY":89.1954,"EPHEMERIS_TYPE":0,"CLASSIFICATION_TYPE":"U","NORAD_CAT_ID":62572,"ELEMENT_SET_NO":999,"REV_AT_EPOCH":3102,"BSTAR":0.0011397,"MEAN_MOTION_DOT":0.00031243,"MEAN_MOTION_DDOT":0},{"OBJECT_NAME":"STARLINK-32771","OBJECT_ID":"2025-006V","EPOCH":"2025-07-31T09:49:16.264128","MEAN_MOTION":15.27595812,"ECCENTRICITY":0.0002267,"INCLINATION":43.0022,"RA_OF_ASC_NODE":101.9948,"ARG_OF_PERICENTER":273.5345,"MEAN_ANOMALY":86.5248,"EPHEMERIS_TYPE":0,"CLASSIFICATION_TYPE":"U","NORAD_CAT_ID":62573,"ELEMENT_SET_NO":999,"REV_AT_EPOCH":3102,"BSTAR":0.00072948,"MEAN_MOTION_DOT":0.00019876,"MEAN_MOTION_DDOT":0},{"OBJECT_NAME":"STARLINK-32766","OBJECT_ID":"2025-006W","EPOCH":"2025-07-31T22:48:26.007264","MEAN_MOTION":15.27611942,"ECCENTRICITY":0.0001209,"INCLINATION":43.0003,"RA_OF_ASC_NODE":99.1707,"ARG_OF_PERICENTER":248.203,"MEAN_ANOMALY":111.8693,"EPHEMERIS_TYPE":0,"CLASSIFICATION_TYPE":"U","NORAD_CAT_ID":62574,"ELEMENT_SET_NO":999,"REV_AT_EPOCH":3110,"BSTAR":0.001448,"MEAN_MOTION_DOT":0.00039838,"MEAN_MOTION_DDOT":0},{"OBJECT_NAME":"STARLINK-11547 [DTC]","OBJECT_ID":"2025-008A","EPOCH":"2025-07-31T21:02:03.580512","MEAN_MOTION":15.70993815,"ECCENTRICITY":0.0004337,"INCLINATION":42.9991,"RA_OF_ASC_NODE":17.3715,"ARG_OF_PERICENTER":256.023,"MEAN_ANOMALY":104.0156,"EPHEMERIS_TYPE":0,"CLASSIFICATION_TYPE":"U","NORAD_CAT_ID":62587,"ELEMENT_SET_NO":999,"REV_AT_EPOCH":3255,"BSTAR":0.0020722,"MEAN_MOTION_DOT":0.00276315,"MEAN_MOTION_DDOT":0},{"OBJECT_NAME":"STARLINK-11185 [DTC]","OBJECT_ID":"2025-008B","EPOCH":"2025-07-30T22:54:21.699648","MEAN_MOTION":15.70926782,"ECCENTRICITY":0.0001644,"INCLINATION":42.9988,"RA_OF_ASC_NODE":22.4793,"ARG_OF_PERICENTER":274.4346,"MEAN_ANOMALY":85.6334,"EPHEMERIS_TYPE":0,"CLASSIFICATION_TYPE":"U","NORAD_CAT_ID":62588,"ELEMENT_SET_NO":999,"REV_AT_EPOCH":3124,"BSTAR":0.0010997,"MEAN_MOTION_DOT":0.00143646,"MEAN_MOTION_DDOT":0},{"OBJECT_NAME":"STARLINK-11513 [DTC]","OBJECT_ID":"2025-008C","EPOCH":"2025-07-31T20:46:46.447968","MEAN_MOTION":15.70873784,"ECCENTRICITY":0.0001966,"INCLINATION":42.9993,"RA_OF_ASC_NODE":17.2856,"ARG_OF_PERICENTER":253.9738,"MEAN_ANOMALY":106.0913,"EPHEMERIS_TYPE":0,"CLASSIFICATION_TYPE":"U","NORAD_CAT_ID":62589,"ELEMENT_SET_NO":999,"REV_AT_EPOCH":3254,"BSTAR":0.0012043,"MEAN_MOTION_DOT":0.00157263,"MEAN_MOTION_DDOT":0},{"OBJECT_NAME":"STARLINK-11397 [DTC]","OBJECT_ID":"2025-008D","EPOCH":"2025-07-31T04:37:39.598752","MEAN_MOTION":15.7091633,"ECCENTRICITY":0.000259,"INCLINATION":43.0015,"RA_OF_ASC_NODE":20.8204,"ARG_OF_PERICENTER":280.7099,"MEAN_ANOMALY":79.3477,"EPHEMERIS_TYPE":0,"CLASSIFICATION_TYPE":"U","NORAD_CAT_ID":62590,"ELEMENT_SET_NO":999,"REV_AT_EPOCH":3239,"BSTAR":0.0015327,"MEAN_MOTION_DOT":0.0020172,"MEAN_MOTION_DDOT":0},{"OBJECT_NAME":"STARLINK-11420 [DTC]","OBJECT_ID":"2025-008E","EPOCH":"2025-07-31T20:54:25.217280","MEAN_MOTION":15.70864572,"ECCENTRICITY":0.0001829,"INCLINATION":42.999,"RA_OF_ASC_NODE":17.3274,"ARG_OF_PERICENTER":260.0812,"MEAN_ANOMALY":99.985,"EPHEMERIS_TYPE":0,"CLASSIFICATION_TYPE":"U","NORAD_CAT_ID":62591,"ELEMENT_SET_NO":999,"REV_AT_EPOCH":3255,"BSTAR":0.00090123,"MEAN_MOTION_DOT":0.00116954,"MEAN_MOTION_DDOT":0}]
